#dP2022  3 24  0  0  0.00000000      96 __u+U ITR14 FIT  IAC
## 2202 345600.00000000   900.00000000 59662 0.0000000000000
+  126   C01C02C03C04C05C06C07C08C09C10C11C12C13C14C16C19C20
+        C21C22C23C24C25C26C27C28C29C30C32C33C34C35C36C37C38
+        C39C40C41C42C43C44C45C46C60E01E02E03E04E05E07E08E10
+        E11E12E13E14E15E18E19E21E24E25E26E27E30E31E33E34E36
+        G01G02G03G04G05G06G07G08G09G10G11G12G13G14G15G16G17
+        G18G19G20G21G22G23G24G25G26G27G28G29G30G31G32J01J02
+        J03J07R01R02R03R04R05R06R07R08R09R10R12R13R14R15R17
+        R18R19R20R21R22R23R24  0  0  0  0  0  0  0  0  0  0
++        15 15 15 17 15  9  9  9  9  9  8  9  9  9  9  7  7
++         7  8  7  7  7  7  7  7  7  6  7  7  7  7  7  7  8
++         8  8  7  7  7  8  8  7 15  5  4  5  5  4  4  4  4
++         4  4  4  5  4  4  4  4  4  4  4  4  4  4  4  6  5
++         4  4  3  3  4  3  4  4  4  4  4  4  4  4  4  4  4
++         4  4  4  4  4  4  4  3  4  4  5  4  4  4  4  8  8
++         9  0  7  6  6  6  6 13  6  6  6 13  6  7  6  6  6
++         6  7  7  5  7 13  6  0  0  0  0  0  0  0  0  0  0
%c M  cc GPS ccc cccc cccc cccc cccc ccccc ccccc ccccc ccccc
%c cc cc ccc ccc cccc cccc cccc cccc ccccc ccccc ccccc ccccc
%f  0.0000000  0.000000000  0.00000000000  0.000000000000000
%f  0.0000000  0.000000000  0.00000000000  0.000000000000000
%i    0    0    0    0      0      0      0      0         0
%i    0    0    0    0      0      0      0      0         0
/* INFORMATION & ANALYSIS CENTER (IAC)            RAPID DATA
/* S/V CLOCKS ARE ALIGNED TO GNSS TIME                      
/* G:C1WC2W R:C1PC2P E:C1XC5X C:C2IC6I J:C1CC2S             
/* PCV:IGS14_2196 OL/AL:FES2004  NONE     YN ORB:CoN CLK:CoN
*  2022 03 24 17 30  0.00000000
PC01 -34320.482951  24465.960263    198.447344      7.042589
PC02   4295.376547  41975.436827   1298.277212    195.556921
PC03 -14870.481132  39466.101360   1055.602550   -562.384497
PC04 -39614.109871  14412.661633   -231.749645   -255.064072
PC05  21771.694884  36127.104200    983.482011   -282.757734
PC06  -8577.409554  40283.283271   9544.175623   -331.731927
PC07  -7028.221297  26288.659755 -32197.727958     94.302115
PC08 -20442.594031  27628.571698  24340.447592    217.069187
PC09  -2568.707409  42318.234601  -1472.570375   -633.737869
PC10   1565.665935  28699.242372 -30483.543575    138.133472
PC11 -14388.960212  -8435.212671 -22314.388170    249.244750
PC12  -6988.142781 -24515.064434 -11327.072227   -633.718466
PC13 -10429.674705  27979.765624  29794.250765    -80.448533
PC14 -25362.773493 -10582.670324   5046.785437    452.597445
PC16  -9341.127036  39647.310272  11543.513005    107.951850
PC19  24130.433743   3085.004170 -13624.127756    883.915594
PC20  23061.359412  15452.257153   2714.795816   -855.676433
PC21  -8061.113838 -19328.300324 -18431.942742   -908.494493
PC22  11245.010271 -11591.081705 -22747.919175   -962.566358
PC23 -20161.558287  17736.176294  -7588.080251   -939.616260
PC24 -15072.920956  -9252.480944  21565.250723   -948.354424
PC25 -25233.099324   7457.316121   9254.679886   -761.136257
PC26   1984.914734 -18544.874702  20755.388448    761.552944
PC27   1506.835530  27727.761670   2857.847027    697.002478
PC28  -9951.228620  22083.865447 -13858.416449     47.244975
PC29  15705.155467  -3670.574346  22764.098253    532.003420
PC30  12620.305927  17550.015801  17656.045744    495.737002
PC32   8104.335369  19274.284530  18497.843823   -966.592438
PC33 -24206.489653  -2975.312387  13590.196041   -970.316219
PC34 -13027.361018 -16598.075182 -18260.272242   -441.092044
PC35   9672.797854 -21771.966805  14490.171376    197.004820
PC36  25349.732693  -6496.136194  -9683.193246   -956.296709
PC37  -3562.307837  18790.031872 -20304.599097   -935.349201
PC38 -25202.367370  28696.372182  17739.545239    220.249882
PC39 -11111.977859  36628.230030  17889.936052     34.897649
PC40 -10342.582913  20343.805615 -35467.361987    255.019562
PC41 -11689.215878  11380.686129  22696.958356   -963.437334
PC42 -22679.298735 -15868.721700  -3578.286111   -941.601909
PC43 -15899.046095   2863.519368 -22765.453980   -934.125196
PC44  -2396.684190 -27652.491281  -2693.996890    605.332952
PC45  20022.856636 -17805.418140   7838.648551    713.220343
PC46  16309.341410   8038.089089 -21182.592418   -234.975775
PC60   7275.758202  41534.634745     84.573593     -0.457258
PE01  29592.776781   -627.774951    638.909591   -603.046905
PE02 -29568.306902    745.318312   -811.048075    288.354109
PE03 -19883.040402  -3606.650476  21634.687900   -540.760975
PE04   9370.672561 -16053.666629 -23025.727189   -991.556052
PE05 -18897.805800 -21517.906649   7490.909823   -197.334914
PE07   6921.908678  26664.481673  10828.202995   -651.599088
PE08  -8935.985605  16319.759086  23023.569315   -500.621364
PE10  11824.090730 -26844.672583  -3957.993666   -502.447028
PE11   4295.606435 -25937.016140 -13586.509669   4145.947993
PE12  17237.303445 -23348.397194   5755.425211   4697.382465
PE13  -4816.401623  26149.318058  13026.820697    427.525803
PE14 -22418.759176  -8505.637887 -21964.414136  -1789.644988
PE15 -17224.181991  23344.271062  -5904.891094    755.841256
PE18  15880.465865   2527.433935  17129.448849  -1646.007782
PE19  20344.592128   6269.601830 -20558.612158  -1857.665385
PE21  22496.470835  10678.738385 -16014.319200   -724.423927
PE24   -499.711513 -16685.076459  24426.689756   -523.131499
PE25 -22281.886290 -10810.215172  16204.972743   -567.945777
PE26  11111.055644  12763.091916  24291.605777   -950.003531
PE27   2081.284195  16593.997432 -24425.768207   -260.513165
PE30 -20338.481335  12205.246862 -17708.764004   -374.798887
PE31  19410.204772 -12697.855097  18396.870555   -494.018051
PE33  19421.433814  -6762.253961  21288.786921   -458.265251
PE34 -19456.694663   7024.155267 -21176.608988   -508.462410
PE36 -10346.164040 -13565.181307 -24182.568224   -349.881110
PG01  13360.056078 -22343.990057  -4476.741722    401.180456
PG02 -18850.307720  10912.507387 -14636.068181   -652.598994
PG03   9609.292523 -13269.511898 -20984.106777   -177.749743
PG04   3524.799633 -21084.730796 -15700.319331   -181.296296
PG05 -23410.689124   5980.568490  11038.784645    -75.831167
PG06 -13681.542565  -5914.143822 -21923.681137    242.418158
PG07    -65.777847 -20326.295013  17218.401384    317.582475
PG08  10311.307096 -12454.326867  20972.465215    -61.133994
PG09  -6116.384660 -24963.884363  -6694.289232   -347.944825
PG10  19782.298694  11678.328523  13727.417477   -356.917509
PG11 -20382.590835   8208.673179 -14917.242937    -54.545614
PG12 -13789.447992  11285.746701 -19921.207933   -189.814809
PG13 -14578.003584   3436.045404  21784.696368    282.329054
PG14 -18503.796768 -12981.700999  14003.018359    -96.873266
PG15  -8859.861671  14371.272719  20030.404560    -74.293043
PG16  25618.670579     46.782280   7590.630425   -484.315186
PG17 -13565.067455 -21015.023908  -8427.156474    591.474638
PG18  -1095.983246  20344.245643  16978.172740    212.263939
PG19 -15621.933384 -15339.958725 -15432.298134    135.284790
PG20 -26274.332635   2277.698360   1717.436984    516.159932
PG21  17685.136413 -18022.186957   7700.674074    159.757474
PG22  16332.008798  12583.367749 -16439.511314    232.531791
PG23   9047.173608  14751.981449  20167.267117     -9.505752
PG24 -14271.997357  22120.524421    382.820314    264.833504
PG25   1111.631549  15571.551143 -21795.445828    302.725573
PG26  25879.027311   4974.216736  -4548.669545    193.348295
PG27  15815.727179    225.764645  21195.918753    164.237294
PG28 -23490.738797 -10096.485970   7245.415301    374.888531
PG29   2880.510685  25096.152949  -8162.222555   -495.149742
PG30  -7528.013738 -15033.704932  20586.332251   -520.400648
PG31  16018.997506   3700.098930 -21070.419353   -170.375868
PG32  16300.481813  17926.376217 -10957.495205    -91.207005
PJ01 -26900.751828  20093.166503  30445.653955    180.539084
PJ02 -33653.944823  16233.496743 -14951.744781     -2.201037
PJ03 -21749.036381  30573.533769 -14615.282630     -1.158055
PJ07      0.000000      0.000000      0.000000 999999.999999
PR01 -15679.252381   -346.656230  20128.612416      7.358235
PR02    566.008727  13898.423355  21443.746327    513.482718
PR03  14839.532424  18596.168325   9323.426328     53.666919
PR04  20524.961179  12963.270783  -7815.248099    133.416895
PR05  14962.081418    236.752289 -20648.339267     89.936754
PR06  -1794.397964 -14469.187072 -20928.865984    -39.366878
PR07 -15284.736260 -18508.523544  -8519.263417     33.036203
PR08 -20601.581740 -12711.021917   8064.323057    -64.226102
PR09  11975.422296 -13833.162565  17751.710665     46.073103
PR10  -4494.562683 -10078.805567  22982.660921    -80.918178
PR12 -23568.181830   9493.289138  -2104.138165     17.578602
PR13 -13241.799632  13606.945115 -17052.521542    -19.887822
PR14   6025.178459   9590.117967 -22848.877978     75.755346
PR15  20778.585160    147.295980 -14782.294963     97.321972
PR17   1921.791664  21699.558766  13252.979781    512.121812
PR18   8861.495114   7565.112239  22713.279721    111.343677
PR19  11558.647512  -9250.631359  20770.330252   -182.785850
PR20   7622.211989 -23865.933102   4664.067284    -67.326083
PR21  -2469.776915 -20883.693067 -14451.606717   -287.878683
PR22  -9085.713137  -6501.269154 -22933.611292   -172.613825
PR23 -11023.745738  15128.116429 -17341.341802    -34.677047
PR24  -6849.978321  24257.000453  -3883.803015     85.889344
EOF
